NORAD_CAT_ID,OBJECT_NAME,OBJECT_TYPE,EPOCH,MEAN_MOTION,ECCENTRICITY,INCLINATION,RA_OF_ASC_NODE,ARG_OF_PERICENTER,MEAN_ANOMALY,BSTAR,MEAN_MOTION_DOT,MEAN_MOTION_DDOT,TLE_LINE0,TLE_LINE1,TLE_LINE2,SEMIMAJOR_AXIS,PERIOD,APOGEE,PERIGEE,DECAYED
50187.0,STARLINK-3272,PAYLOAD,2023-07-26 00:22:39,15.08837635,0.0001303,53.2134,218.2846,93.2535,266.8606,8.466e-05,1.06e-05,0.0,0 STARLINK-3272,1 50187U 21125AH  23207.01573170  .00001060  00000-0  84660-4 0  9995,2 50187  53.2134 218.2846 0001303  93.2535 266.8606 15.08837635 92142,6917.888,95.438,540.654,538.851,0.0
50187.0,STARLINK-3272,PAYLOAD,2023-07-26 08:19:34,15.08841521,0.0001154,53.2151,216.7991,85.5055,274.6069,0.00010871,1.443e-05,0.0,0 STARLINK-3272,1 50187U 21125AH  23207.34692970  .00001443  00000-0  10871-3 0  9998,2 50187  53.2151 216.7991 0001154  85.5055 274.6069 15.08841521 92194,6917.876,95.437,540.539,538.942,0.0
50187.0,STARLINK-3272,PAYLOAD,2023-07-27 00:13:26,15.0884235,0.000114,53.215,213.8252,87.4947,272.6176,9.0966e-05,1.16e-05,0.0,0 STARLINK-3272,1 50187U 21125AH  23208.00932935  .00001160  00000-0  90966-4 0  9990,2 50187  53.2150 213.8252 0001140  87.4947 272.6176 15.08842350 89225,6917.873,95.437,540.527,538.95,0.0
50187.0,STARLINK-3272,PAYLOAD,2023-07-27 09:45:44,15.08844173,0.0001168,53.2151,212.041,85.7695,274.343,9.6838e-05,1.254e-05,0.0,0 STARLINK-3272,1 50187U 21125AH  23208.40676771  .00001254  00000-0  96838-4 0  9995,2 50187  53.2151 212.0410 0001168  85.7695 274.3430 15.08844173 92359,6917.868,95.437,540.541,538.925,0.0
50187.0,STARLINK-3272,PAYLOAD,2023-07-28 00:04:13,15.08837804,0.000132,53.2161,209.3662,82.8167,277.2975,2.9725e-05,1.85e-06,0.0,0 STARLINK-3272,1 50187U 21125AH  23209.00293356  .00000185  00000-0  29725-4 0  9999,2 50187  53.2161 209.3662 0001320  82.8167 277.2975 15.08837804 89377,6917.887,95.438,540.665,538.839,0.0
50187.0,STARLINK-3272,PAYLOAD,2023-07-28 09:36:32,15.08838366,0.0001253,53.2158,207.5806,91.9029,268.2107,1.5518e-05,-4.1e-07,0.0,0 STARLINK-3272,1 50187U 21125AH  23209.40037305 -.00000041  00000-0  15518-4 0  9990,2 50187  53.2158 207.5806 0001253  91.9029 268.2107 15.08838366 92506,6917.885,95.438,540.617,538.884,0.0
50187.0,STARLINK-3272,PAYLOAD,2023-07-29 03:05:46,15.08841845,0.0001305,53.2158,204.3092,94.4831,265.631,4.5927e-05,4.43e-06,0.0,0 STARLINK-3272,1 50187U 21125AH  23210.12900978  .00000443  00000-0  45927-4 0  9998,2 50187  53.2158 204.3092 0001305  94.4831 265.6310 15.08841845 89548,6917.875,95.437,540.643,538.837,0.0
50187.0,STARLINK-3272,PAYLOAD,2023-07-30 02:56:34,15.08833661,0.0001287,53.2163,199.8493,92.4946,267.6193,2.9666e-05,1.84e-06,0.0,0 STARLINK-3272,1 50187U 21125AH  23211.12261624  .00000184  00000-0  29666-4 0  9991,2 50187  53.2163 199.8493 0001287  92.4946 267.6193 15.08833661 89695,6917.9,95.438,540.655,538.874,0.0
50187.0,STARLINK-3272,PAYLOAD,2023-07-31 07:33:30,15.08838144,0.0001313,53.2168,194.497,88.4178,271.6964,1.5499e-05,-4.1e-07,0.0,0 STARLINK-3272,1 50187U 21125AH  23212.31493684 -.00000041  00000-0  15499-4 0  9998,2 50187  53.2168 194.4970 0001313  88.4178 271.6964 15.08838144 89875,6917.886,95.438,540.659,538.843,0.0
50187.0,STARLINK-3272,PAYLOAD,2023-08-01 02:38:08,15.08817611,0.0001398,53.2174,190.9286,98.2902,261.8249,0.00028133,4.19e-05,0.0,0 STARLINK-3272,1 50187U 21125AH  23213.10982157  .00004190  00000-0  28133-3 0  9990,2 50187  53.2174 190.9286 0001398  98.2902 261.8249 15.08817611 89996,6917.949,95.439,540.781,538.847,0.0
50187.0,STARLINK-3272,PAYLOAD,2023-08-01 15:21:13,15.08836532,0.0001292,53.2169,188.5505,100.0552,260.0586,9.495e-06,-1.37e-06,0.0,0 STARLINK-3272,1 50187U 21125AH  23213.63974066 -.00000137  00000-0  94950-5 0  9998,2 50187  53.2169 188.5505 0001292 100.0552 260.0586 15.08836532 90072,6917.891,95.438,540.65,538.862,0.0
50187.0,STARLINK-3272,PAYLOAD,2023-08-03 02:19:42,15.08841689,0.0001212,53.2163,182.0078,86.2227,273.8903,4.9056e-05,4.93e-06,0.0,0 STARLINK-3272,1 50187U 21125AH  23215.09702037  .00000493  00000-0  49056-4 0  9997,2 50187  53.2163 182.0078 0001212  86.2227 273.8903 15.08841689 90294,6917.875,95.437,540.579,538.902,0.0
50187.0,STARLINK-3272,PAYLOAD,2023-08-04 02:10:30,15.08827992,0.0001192,53.2161,177.5465,91.8202,268.2926,1.8577e-07,-2.85e-06,0.0,0 STARLINK-3272,1 50187U 21125AH  23216.09063195 -.00000285  00000-0  18577-6 0  9999,2 50187  53.2161 177.5465 0001192  91.8202 268.2926 15.08827992 90444,6917.917,95.438,540.607,538.957,0.0
50187.0,STARLINK-3272,PAYLOAD,2023-08-04 06:56:39,15.08836673,0.0001225,53.2164,176.6546,88.3358,271.7774,3.3318e-05,2.42e-06,0.0,0 STARLINK-3272,1 50187U 21125AH  23216.28934665  .00000242  00000-0  33318-4 0  9999,2 50187  53.2164 176.6546 0001225  88.3358 271.7774 15.08836673 90476,6917.891,95.438,540.603,538.908,0.0
50187.0,STARLINK-3272,PAYLOAD,2023-08-05 02:01:16,15.08845485,0.0001209,53.2165,173.0866,83.4939,276.619,9.3025e-05,1.193e-05,0.0,0 STARLINK-3272,1 50187U 21125AH  23217.08421939  .00001193  00000-0  93025-4 0  9990,2 50187  53.2165 173.0866 0001209  83.4939 276.6190 15.08845485 90596,6917.864,95.437,540.565,538.892,0.0
50187.0,STARLINK-3272,PAYLOAD,2023-08-05 06:47:25,15.08855645,0.0001145,53.2161,172.1925,101.8896,258.2224,0.00012755,1.744e-05,0.0,0 STARLINK-3272,1 50187U 21125AH  23217.28293081  .00001744  00000-0  12755-3 0  9999,2 50187  53.2161 172.1925 0001145 101.8896 258.2224 15.08855645 90621,6917.833,95.437,540.49,538.905,0.0
50187.0,STARLINK-3272,PAYLOAD,2023-08-06 03:27:26,15.08851885,0.0001154,53.2168,168.323,106.6515,253.4604,9.8583e-05,1.282e-05,0.0,0 STARLINK-3272,1 50187U 21125AH  23218.14405106  .00001282  00000-0  98583-4 0  9999,2 50187  53.2168 168.3230 0001154 106.6515 253.4604 15.08851885 90750,6917.844,95.437,540.507,538.911,0.0
50187.0,STARLINK-3272,PAYLOAD,2023-08-06 20:56:42,15.08833455,9.78e-05,53.2156,165.0525,111.0783,249.0314,-8.803e-05,-1.688e-05,0.0,0 STARLINK-3272,1 50187U 21125AH  23218.87270927 -.00001688  00000-0 -88030-4 0  9998,2 50187  53.2156 165.0525 0000978 111.0783 249.0314 15.08833455 90862,6917.9,95.438,540.442,539.089,0.0
50187.0,STARLINK-3272,PAYLOAD,2023-08-08 03:09:01,15.08837597,0.0001211,53.2166,159.4058,91.1236,268.9895,-3.5524e-05,-8.53e-06,0.0,0 STARLINK-3272,1 50187U 21125AH  23220.13126875 -.00000853  00000-0 -35524-4 0  9995,2 50187  53.2166 159.4058 0001211  91.1236 268.9895 15.08837597 91050,6917.888,95.438,540.59,538.915,0.0
50187.0,STARLINK-3272,PAYLOAD,2023-08-08 06:19:50,15.08804936,0.000118,53.2161,158.8147,89.1973,270.9154,-0.00031148,-5.237e-05,0.0,0 STARLINK-3272,1 50187U 21125AH  23220.26377837 -.00005237  00000-0 -31148-3 0  9993,2 50187  53.2161 158.8147 0001180  89.1973 270.9154 15.08804936 91071,6917.988,95.44,540.669,539.036,0.0
50187.0,STARLINK-3272,PAYLOAD,2023-08-08 12:41:22,15.08816739,0.0001117,53.2173,157.6273,90.1559,269.9561,-0.00015977,-2.828e-05,0.0,0 STARLINK-3272,1 50187U 21125AH  23220.52873187 -.00002828  00000-0 -15977-3 0  9996,2 50187  53.2173 157.6273 0001117  90.1559 269.9561 15.08816739 91112,6917.951,95.439,540.589,539.044,0.0
50187.0,STARLINK-3272,PAYLOAD,2023-08-09 04:35:12,15.08831251,0.0001031,53.2165,154.6515,89.4918,270.6192,0.00021321,3.106e-05,0.0,0 STARLINK-3272,1 50187U 21125AH  23221.19112098  .00003106  00000-0  21321-3 0  9995,2 50187  53.2165 154.6515 0001031  89.4918 270.6192 15.08831251 91210,6917.907,95.438,540.485,539.059,0.0
50187.0,STARLINK-3272,PAYLOAD,2023-08-09 12:32:07,15.08840868,6.9e-05,53.2174,153.1635,253.1272,106.9645,0.00021248,3.096e-05,0.0,0 STARLINK-3272,1 50187U 21125AH  23221.52230902  .00003096  00000-0  21248-3 0  9993,2 50187  53.2174 153.1635 0000690 253.1272 106.9645 15.08840868 91263,6917.878,95.437,540.22,539.265,0.0
50187.0,STARLINK-3272,PAYLOAD,2023-08-10 06:01:21,15.08858452,0.0001194,53.2145,149.8932,86.9627,273.1502,0.00027876,4.154e-05,0.0,0 STARLINK-3272,1 50187U 21125AH  23222.25094697  .00004154  00000-0  27876-3 0  9992,2 50187  53.2145 149.8932 0001194  86.9627 273.1502 15.08858452 91378,6917.824,95.436,540.515,538.863,0.0
50187.0,STARLINK-3272,PAYLOAD,2023-08-10 18:44:27,15.08841316,0.0001585,53.2133,147.5129,84.9332,275.1841,0.00018103,2.594e-05,0.0,0 STARLINK-3272,1 50187U 21125AH  23222.78087690  .00002594  00000-0  18103-3 0  9994,2 50187  53.2133 147.5129 0001585  84.9332 275.1841 15.08841316 91451,6917.876,95.437,540.838,538.645,0.0
50187.0,STARLINK-3272,PAYLOAD,2023-08-12 00:56:47,15.08840289,0.0001418,53.2159,141.8631,87.4778,272.6377,-0.00010056,-1.888e-05,0.0,0 STARLINK-3272,1 50187U 21125AH  23224.03943296 -.00001888  00000-0 -10056-3 0  9993,2 50187  53.2159 141.8631 0001418  87.4778 272.6377 15.08840289 91646,6917.88,95.438,540.725,538.764,0.0
50187.0,STARLINK-3272,PAYLOAD,2023-08-13 00:47:33,15.08849755,0.0001275,53.2155,137.4039,85.5358,274.5779,0.00028621,4.271e-05,0.0,0 STARLINK-3272,1 50187U 21125AH  23225.03302881  .00004271  00000-0  28621-3 0  9997,2 50187  53.2155 137.4039 0001275  85.5358 274.5779 15.08849755 91799,6917.851,95.437,540.598,538.834,0.0
50187.0,STARLINK-3272,PAYLOAD,2023-08-14 00:38:21,15.08841769,0.0001318,53.2159,132.9434,93.6508,266.4635,0.00017528,2.503e-05,0.0,0 STARLINK-3272,1 50187U 21125AH  23226.02663348  .00002503  00000-0  17528-3 0  9995,2 50187  53.2159 132.9434 0001318  93.6508 266.4635 15.08841769 91942,6917.875,95.437,540.652,538.828,0.0
50187.0,STARLINK-3272,PAYLOAD,2023-08-15 03:39:54,15.08844488,0.000134,53.2161,127.8888,97.387,262.7275,0.00014844,2.076e-05,0.0,0 STARLINK-3272,1 50187U 21125AH  23227.15271198  .00002076  00000-0  14844-3 0  9991,2 50187  53.2161 127.8888 0001340  97.3870 262.7275 15.08844488 92119,6917.867,95.437,540.659,538.805,0.0
50187.0,STARLINK-3272,PAYLOAD,2023-08-15 17:58:22,15.08839888,0.0001318,53.2169,125.2136,95.2578,264.8564,0.00014048,1.949e-05,0.0,0 STARLINK-3272,1 50187U 21125AH  23227.74887510  .00001949  00000-0  14048-3 0  9991,2 50187  53.2169 125.2136 0001318  95.2578 264.8564 15.08839888 92204,6917.881,95.438,540.658,538.834,0.0
